[{"OBJECT_NAME":"ONEWEB-0637","OBJECT_ID":"2023-043AJ","EPOCH":"2025-11-26T05:00:52.782336","MEAN_MOTION":13.15549578,"ECCENTRICITY":0.0001561,"INCLINATION":87.8973,"RA_OF_ASC_NODE":299.7234,"ARG_OF_PERICENTER":84.247,"MEAN_ANOMALY":275.8839,"EPHEMERIS_TYPE":0,"CLASSIFICATION_TYPE":"U","NORAD_CAT_ID":56078,"ELEMENT_SET_NO":999,"REV_AT_EPOCH":12974,"BSTAR":0.00036109,"MEAN_MOTION_DOT":1.49e-6,"MEAN_MOTION_DDOT":0},{"OBJECT_NAME":"ONEWEB-0647","OBJECT_ID":"2023-043AK","EPOCH":"2025-11-26T04:54:01.533024","MEAN_MOTION":13.15547737,"ECCENTRICITY":0.0001958,"INCLINATION":87.8972,"RA_OF_ASC_NODE":299.7377,"ARG_OF_PERICENTER":87.7104,"MEAN_ANOMALY":272.4251,"EPHEMERIS_TYPE":0,"CLASSIFICATION_TYPE":"U","NORAD_CAT_ID":56079,"ELEMENT_SET_NO":999,"REV_AT_EPOCH":12973,"BSTAR":-2.2754e-6,"MEAN_MOTION_DOT":1.2e-7,"MEAN_MOTION_DDOT":0},{"OBJECT_NAME":"ONEWEB-0651","OBJECT_ID":"2023-043AL","EPOCH":"2025-11-25T23:18:36.947808","MEAN_MOTION":13.1554821,"ECCENTRICITY":0.00016623,"INCLINATION":87.8972,"RA_OF_ASC_NODE":299.7772,"ARG_OF_PERICENTER":90.4759,"MEAN_ANOMALY":269.6561,"EPHEMERIS_TYPE":0,"CLASSIFICATION_TYPE":"U","NORAD_CAT_ID":56080,"ELEMENT_SET_NO":999,"REV_AT_EPOCH":13090,"BSTAR":-0.00019394254,"MEAN_MOTION_DOT":-6.0e-7,"MEAN_MOTION_DDOT":0},{"OBJECT_NAME":"ONEWEB-0718","OBJECT_ID":"2023-043AM","EPOCH":"2025-11-26T04:40:19.540704","MEAN_MOTION":13.15547692,"ECCENTRICITY":0.0001759,"INCLINATION":87.8976,"RA_OF_ASC_NODE":299.7132,"ARG_OF_PERICENTER":65.3085,"MEAN_ANOMALY":294.8228,"EPHEMERIS_TYPE":0,"CLASSIFICATION_TYPE":"U","NORAD_CAT_ID":56081,"ELEMENT_SET_NO":999,"REV_AT_EPOCH":12974,"BSTAR":-4.0609e-5,"MEAN_MOTION_DOT":-2.0e-8,"MEAN_MOTION_DDOT":0},{"OBJECT_NAME":"ONEWEB-0561","OBJECT_ID":"2023-068A","EPOCH":"2025-11-26T00:26:00.996576","MEAN_MOTION":13.20772511,"ECCENTRICITY":0.0002042,"INCLINATION":87.9184,"RA_OF_ASC_NODE":314.9698,"ARG_OF_PERICENTER":99.6108,"MEAN_ANOMALY":260.5256,"EPHEMERIS_TYPE":0,"CLASSIFICATION_TYPE":"U","NORAD_CAT_ID":56710,"ELEMENT_SET_NO":999,"REV_AT_EPOCH":12268,"BSTAR":-0.00016127983,"MEAN_MOTION_DOT":-5.3e-7,"MEAN_MOTION_DDOT":0},{"OBJECT_NAME":"ONEWEB-0668","OBJECT_ID":"2023-068B","EPOCH":"2025-11-26T03:17:20.429664","MEAN_MOTION":13.16589768,"ECCENTRICITY":0.0001458,"INCLINATION":87.9045,"RA_OF_ASC_NODE":269.188,"ARG_OF_PERICENTER":62.5363,"MEAN_ANOMALY":297.5916,"EPHEMERIS_TYPE":0,"CLASSIFICATION_TYPE":"U","NORAD_CAT_ID":56711,"ELEMENT_SET_NO":999,"REV_AT_EPOCH":12506,"BSTAR":0.00043289,"MEAN_MOTION_DOT":1.78e-6,"MEAN_MOTION_DDOT":0},{"OBJECT_NAME":"ONEWEB-0676","OBJECT_ID":"2023-068C","EPOCH":"2025-11-26T01:39:19.781280","MEAN_MOTION":13.16594209,"ECCENTRICITY":0.0001859,"INCLINATION":87.9033,"RA_OF_ASC_NODE":269.2257,"ARG_OF_PERICENTER":81.9641,"MEAN_ANOMALY":278.1701,"EPHEMERIS_TYPE":0,"CLASSIFICATION_TYPE":"U","NORAD_CAT_ID":56712,"ELEMENT_SET_NO":999,"REV_AT_EPOCH":12497,"BSTAR":8.2538e-5,"MEAN_MOTION_DOT":4.4e-7,"MEAN_MOTION_DDOT":0},{"OBJECT_NAME":"ONEWEB-0677","OBJECT_ID":"2023-068D","EPOCH":"2025-11-26T00:10:05.519712","MEAN_MOTION":13.20769256,"ECCENTRICITY":0.00017479,"INCLINATION":87.9193,"RA_OF_ASC_NODE":314.9533,"ARG_OF_PERICENTER":90.6362,"MEAN_ANOMALY":269.4972,"EPHEMERIS_TYPE":0,"CLASSIFICATION_TYPE":"U","NORAD_CAT_ID":56713,"ELEMENT_SET_NO":999,"REV_AT_EPOCH":12298,"BSTAR":-0.00011337825,"MEAN_MOTION_DOT":-3.3e-7,"MEAN_MOTION_DDOT":0},{"OBJECT_NAME":"ONEWEB-0678","OBJECT_ID":"2023-068E","EPOCH":"2025-11-26T03:54:41.788224","MEAN_MOTION":13.15548218,"ECCENTRICITY":0.0002178,"INCLINATION":87.8981,"RA_OF_ASC_NODE":299.6942,"ARG_OF_PERICENTER":85.6244,"MEAN_ANOMALY":274.5135,"EPHEMERIS_TYPE":0,"CLASSIFICATION_TYPE":"U","NORAD_CAT_ID":56714,"ELEMENT_SET_NO":999,"REV_AT_EPOCH":12259,"BSTAR":0.00023569,"MEAN_MOTION_DOT":1.02e-6,"MEAN_MOTION_DDOT":0},{"OBJECT_NAME":"ONEWEB-0679","OBJECT_ID":"2023-068F","EPOCH":"2025-11-26T02:29:26.774304","MEAN_MOTION":13.1659682,"ECCENTRICITY":0.0001304,"INCLINATION":87.9024,"RA_OF_ASC_NODE":269.203,"ARG_OF_PERICENTER":80.5987,"MEAN_ANOMALY":279.5291,"EPHEMERIS_TYPE":0,"CLASSIFICATION_TYPE":"U","NORAD_CAT_ID":56715,"ELEMENT_SET_NO":999,"REV_AT_EPOCH":12500,"BSTAR":0.0001084,"MEAN_MOTION_DOT":5.4e-7,"MEAN_MOTION_DDOT":0},{"OBJECT_NAME":"ONEWEB-0680","OBJECT_ID":"2023-068G","EPOCH":"2025-11-26T03:42:36.705600","MEAN_MOTION":13.21826045,"ECCENTRICITY":0.0001362,"INCLINATION":87.9205,"RA_OF_ASC_NODE":284.4566,"ARG_OF_PERICENTER":68.6504,"MEAN_ANOMALY":291.4775,"EPHEMERIS_TYPE":0,"CLASSIFICATION_TYPE":"U","NORAD_CAT_ID":56716,"ELEMENT_SET_NO":999,"REV_AT_EPOCH":12427,"BSTAR":-0.00030799,"MEAN_MOTION_DOT":-1.14e-6,"MEAN_MOTION_DDOT":0},{"OBJECT_NAME":"ONEWEB-0681","OBJECT_ID":"2023-068H","EPOCH":"2025-11-26T03:12:59.920704","MEAN_MOTION":13.218245,"ECCENTRICITY":0.000194,"INCLINATION":87.9197,"RA_OF_ASC_NODE":284.4779,"ARG_OF_PERICENTER":113.1936,"MEAN_ANOMALY":246.9402,"EPHEMERIS_TYPE":0,"CLASSIFICATION_TYPE":"U","NORAD_CAT_ID":56717,"ELEMENT_SET_NO":999,"REV_AT_EPOCH":12426,"BSTAR":-0.00061445,"MEAN_MOTION_DOT":-2.41e-6,"MEAN_MOTION_DDOT":0},{"OBJECT_NAME":"ONEWEB-0682","OBJECT_ID":"2023-068J","EPOCH":"2025-11-26T04:32:19.974048","MEAN_MOTION":13.15550483,"ECCENTRICITY":0.0001363,"INCLINATION":87.897,"RA_OF_ASC_NODE":299.7048,"ARG_OF_PERICENTER":76.3213,"MEAN_ANOMALY":283.8069,"EPHEMERIS_TYPE":0,"CLASSIFICATION_TYPE":"U","NORAD_CAT_ID":56718,"ELEMENT_SET_NO":999,"REV_AT_EPOCH":12276,"BSTAR":-0.00020914,"MEAN_MOTION_DOT":-6.6e-7,"MEAN_MOTION_DDOT":0},{"OBJECT_NAME":"ONEWEB-0683","OBJECT_ID":"2023-068K","EPOCH":"2025-11-26T05:03:09.417024","MEAN_MOTION":13.15548412,"ECCENTRICITY":0.0001653,"INCLINATION":87.8984,"RA_OF_ASC_NODE":299.6831,"ARG_OF_PERICENTER":77.7642,"MEAN_ANOMALY":282.3673,"EPHEMERIS_TYPE":0,"CLASSIFICATION_TYPE":"U","NORAD_CAT_ID":56719,"ELEMENT_SET_NO":999,"REV_AT_EPOCH":12273,"BSTAR":0.00041214,"MEAN_MOTION_DOT":1.68e-6,"MEAN_MOTION_DDOT":0},{"OBJECT_NAME":"ONEWEB-0684","OBJECT_ID":"2023-068L","EPOCH":"2025-11-25T21:56:28.087872","MEAN_MOTION":13.15549614,"ECCENTRICITY":0.00032075,"INCLINATION":87.8981,"RA_OF_ASC_NODE":299.7371,"ARG_OF_PERICENTER":74.1351,"MEAN_ANOMALY":286.0132,"EPHEMERIS_TYPE":0,"CLASSIFICATION_TYPE":"U","NORAD_CAT_ID":56720,"ELEMENT_SET_NO":999,"REV_AT_EPOCH":12252,"BSTAR":0.00043170412,"MEAN_MOTION_DOT":1.75e-6,"MEAN_MOTION_DDOT":0},{"OBJECT_NAME":"ONEWEB-0686","OBJECT_ID":"2023-068M","EPOCH":"2025-11-26T02:41:44.192256","MEAN_MOTION":13.15056106,"ECCENTRICITY":0.0001962,"INCLINATION":87.902,"RA_OF_ASC_NODE":269.2371,"ARG_OF_PERICENTER":66.8489,"MEAN_ANOMALY":293.2847,"EPHEMERIS_TYPE":0,"CLASSIFICATION_TYPE":"U","NORAD_CAT_ID":56721,"ELEMENT_SET_NO":999,"REV_AT_EPOCH":12499,"BSTAR":9.4229e-5,"MEAN_MOTION_DOT":4.8e-7,"MEAN_MOTION_DDOT":0},{"OBJECT_NAME":"ONEWEB-0694","OBJECT_ID":"2023-068N","EPOCH":"2025-11-26T01:41:36.439296","MEAN_MOTION":13.16593944,"ECCENTRICITY":0.0001566,"INCLINATION":87.9043,"RA_OF_ASC_NODE":269.1849,"ARG_OF_PERICENTER":67.076,"MEAN_ANOMALY":293.0536,"EPHEMERIS_TYPE":0,"CLASSIFICATION_TYPE":"U","NORAD_CAT_ID":56722,"ELEMENT_SET_NO":999,"REV_AT_EPOCH":12504,"BSTAR":0.00036986,"MEAN_MOTION_DOT":1.54e-6,"MEAN_MOTION_DDOT":0}]
