ONEWEB-0637             
1 56078U 23043AJ  25330.20894424  .00000149  00000+0  36109-3 0  9999
2 56078  87.8973 299.7234 0001561  84.2470 275.8839 13.15549578129747
ONEWEB-0647             
1 56079U 23043AK  25330.20418441  .00000012  00000+0 -22754-5 0  9994
2 56079  87.8972 299.7377 0001958  87.7104 272.4251 13.15547737129732
ONEWEB-0651             
1 56080U 23043AL  25329.97126097 -.00000060  00000+0 -19394-3 0  9999
2 56080  87.8972 299.7772 0001662  90.4759 269.6561 13.15548210130902
ONEWEB-0718             
1 56081U 23043AM  25330.19467061 -.00000002  00000+0 -40609-4 0  9995
2 56081  87.8976 299.7132 0001759  65.3085 294.8228 13.15547692129740
ONEWEB-0561             
1 56710U 23068A   25330.01806709 -.00000053  00000+0 -16128-3 0  9992
2 56710  87.9184 314.9698 0002042  99.6108 260.5256 13.20772511122683
ONEWEB-0668             
1 56711U 23068B   25330.13704201  .00000178  00000+0  43289-3 0  9994
2 56711  87.9045 269.1880 0001458  62.5363 297.5916 13.16589768125069
ONEWEB-0676             
1 56712U 23068C   25330.06897895  .00000044  00000+0  82538-4 0  9992
2 56712  87.9033 269.2257 0001859  81.9641 278.1701 13.16594209124977
ONEWEB-0677             
1 56713U 23068D   25330.00700833 -.00000033  00000+0 -11338-3 0  9991
2 56713  87.9193 314.9533 0001747  90.6362 269.4972 13.20769256122986
ONEWEB-0678             
1 56714U 23068E   25330.16298366  .00000102  00000+0  23569-3 0  9996
2 56714  87.8981 299.6942 0002178  85.6244 274.5135 13.15548218122598
ONEWEB-0679             
1 56715U 23068F   25330.10378211  .00000054  00000+0  10840-3 0  9993
2 56715  87.9024 269.2030 0001304  80.5987 279.5291 13.16596820125007
ONEWEB-0680             
1 56716U 23068G   25330.15459150 -.00000114  00000+0 -30799-3 0  9995
2 56716  87.9205 284.4566 0001362  68.6504 291.4775 13.21826045124277
ONEWEB-0681             
1 56717U 23068H   25330.13402686 -.00000241  00000+0 -61445-3 0  9999
2 56717  87.9197 284.4779 0001940 113.1936 246.9402 13.21824500124266
ONEWEB-0682             
1 56718U 23068J   25330.18912007 -.00000066  00000+0 -20914-3 0  9999
2 56718  87.8970 299.7048 0001363  76.3213 283.8069 13.15550483122761
ONEWEB-0683             
1 56719U 23068K   25330.21052566  .00000168  00000+0  41214-3 0  9996
2 56719  87.8984 299.6831 0001653  77.7642 282.3673 13.15548412122730
ONEWEB-0684             
1 56720U 23068L   25329.91421398  .00000175  00000+0  43170-3 0  9997
2 56720  87.8981 299.7371 0003207  74.1351 286.0132 13.15549614122527
ONEWEB-0686             
1 56721U 23068M   25330.11231704  .00000048  00000+0  94229-4 0  9993
2 56721  87.9020 269.2371 0001962  66.8489 293.2847 13.15056106124996
ONEWEB-0694             
1 56722U 23068N   25330.07056064  .00000154  00000+0  36986-3 0  9996
2 56722  87.9043 269.1849 0001566  67.0760 293.0536 13.16593944125043
